NORAD_CAT_ID,OBJECT_NAME,OBJECT_TYPE,EPOCH,MEAN_MOTION,ECCENTRICITY,INCLINATION,RA_OF_ASC_NODE,ARG_OF_PERICENTER,MEAN_ANOMALY,BSTAR,MEAN_MOTION_DOT,MEAN_MOTION_DDOT,TLE_LINE0,TLE_LINE1,TLE_LINE2,SEMIMAJOR_AXIS,PERIOD,APOGEE,PERIGEE,DECAYED
55786.0,STARLINK-5823,PAYLOAD,2023-10-06 02:45:18,14.98326426,0.000299,69.9987,277.3788,271.509,88.5726,4.3793e-05,4.3e-06,0.0,0 STARLINK-5823,1 55786U 23028AX  23279.11479526  .00000430  00000-0  43793-4 0  9991,2 55786  69.9987 277.3788 0002990 271.5090  88.5726 14.98326426 34364,6950.204,96.107,574.147,569.991,0.0
55786.0,STARLINK-5823,PAYLOAD,2023-10-06 09:09:50,14.98329963,0.000299,69.999,276.7057,268.8294,91.2522,1.3988e-05,7.4e-07,0.0,0 STARLINK-5823,1 55786U 23028AX  23279.38183420  .00000074  00000-0  13988-4 0  9992,2 55786  69.9990 276.7057 0002990 268.8294  91.2522 14.98329963 34415,6950.193,96.107,574.136,569.98,0.0
55786.0,STARLINK-5823,PAYLOAD,2023-10-06 17:10:30,14.98346279,0.0003083,69.9989,275.8644,268.3827,91.6979,-0.00029886,-3.659e-05,0.0,0 STARLINK-5823,1 55786U 23028AX  23279.71563095 -.00003659  00000-0 -29886-3 0  9996,2 55786  69.9989 275.8644 0003083 268.3827  91.6979 14.98346279 34459,6950.143,96.106,574.15,569.865,0.0
55786.0,STARLINK-5823,PAYLOAD,2023-10-07 01:11:11,14.98328355,0.000301,69.999,275.023,271.144,88.9374,-5.2006e-05,-7.13e-06,0.0,0 STARLINK-5823,1 55786U 23028AX  23280.04943744 -.00000713  00000-0 -52006-4 0  9996,2 55786  69.9990 275.0230 0003010 271.1440  88.9374 14.98328355 34506,6950.198,96.107,574.155,569.971,0.0
55786.0,STARLINK-5823,PAYLOAD,2023-10-08 02:49:20,14.98329678,0.0002992,69.9992,272.3299,271.2094,88.8722,6.5964e-07,-8.5e-07,0.0,0 STARLINK-5823,1 55786U 23028AX  23281.11759565 -.00000085  00000-0  65964-6 0  9991,2 55786  69.9992 272.3299 0002992 271.2094  88.8722 14.98329678 34669,6950.194,96.107,574.138,569.979,0.0
55786.0,STARLINK-5823,PAYLOAD,2023-10-08 09:13:52,14.98332086,0.0002965,69.9991,271.6557,266.9851,93.0969,4.9226e-05,4.94e-06,0.0,0 STARLINK-5823,1 55786U 23028AX  23281.38463225  .00000494  00000-0  49226-4 0  9999,2 55786  69.9991 271.6557 0002965 266.9851  93.0969 14.98332086 34713,6950.186,96.107,574.112,569.991,0.0
55786.0,STARLINK-5823,PAYLOAD,2023-10-08 17:14:32,14.98332933,0.0002932,69.9993,270.8137,272.6633,87.4191,1.5677e-05,9.4e-07,0.0,0 STARLINK-5823,1 55786U 23028AX  23281.71843253  .00000094  00000-0  15677-4 0  9998,2 55786  69.9993 270.8137 0002932 272.6633  87.4191 14.98332933 34766,6950.184,96.107,574.087,570.011,0.0
55786.0,STARLINK-5823,PAYLOAD,2023-10-09 02:51:21,14.9832666,0.0003155,69.999,269.8042,269.1799,90.8999,7.9665e-05,8.58e-06,0.0,0 STARLINK-5823,1 55786U 23028AX  23282.11899464  .00000858  00000-0  79665-4 0  9993,2 55786  69.9990 269.8042 0003155 269.1799  90.8999 14.98326660 34818,6950.203,96.107,574.261,569.875,0.0
55786.0,STARLINK-5823,PAYLOAD,2023-10-09 09:15:52,14.98348261,0.0003074,69.9991,269.1311,267.543,92.5377,-0.00017473,-2.178e-05,0.0,0 STARLINK-5823,1 55786U 23028AX  23282.38602658 -.00002178  00000-0 -17473-3 0  9996,2 55786  69.9991 269.1311 0003074 267.5430  92.5377 14.98348261 34859,6950.136,96.106,574.138,569.865,0.0
55786.0,STARLINK-5823,PAYLOAD,2023-10-09 22:04:57,14.98400258,0.0002119,69.9992,267.7837,263.6102,96.4816,-0.0010854,-0.00013043,0.0,0 STARLINK-5823,1 55786U 23028AX  23282.92011106 -.00013043  00000-0 -10854-2 0  9996,2 55786  69.9992 267.7837 0002119 263.6102  96.4816 14.98400258 34945,6949.976,96.102,573.313,570.368,0.0
55786.0,STARLINK-5823,PAYLOAD,2023-10-10 02:53:22,14.98326768,0.0002751,69.9994,267.2792,266.3226,93.7619,-5.5574e-05,-7.56e-06,0.0,0 STARLINK-5823,1 55786U 23028AX  23283.12039651 -.00000756  00000-0 -55574-4 0  9991,2 55786  69.9994 267.2792 0002751 266.3226  93.7619 14.98326768 34967,6950.203,96.107,573.98,570.156,0.0
55786.0,STARLINK-5823,PAYLOAD,2023-10-10 09:17:52,14.98407678,0.000257,69.9998,266.6071,253.7932,106.2944,-0.001263,-0.0001516,0.0,0 STARLINK-5823,1 55786U 23028AX  23283.38741183 -.00015160  00000-0 -12630-2 0  9998,2 55786  69.9998 266.6071 0002570 253.7932 106.2944 14.98407678 35004,6949.953,96.102,573.604,570.032,0.0
55786.0,STARLINK-5823,PAYLOAD,2023-10-10 15:42:26,14.98360667,0.0002352,70.0009,265.9326,278.2756,81.8137,-0.00064703,-7.81e-05,0.0,0 STARLINK-5823,1 55786U 23028AX  23283.65446928 -.00007810  00000-0 -64703-3 0  9999,2 55786  70.0009 265.9326 0002352 278.2756  81.8137 14.98360667 35041,6950.098,96.105,573.598,570.328,0.0
55786.0,STARLINK-5823,PAYLOAD,2023-10-10 22:06:58,14.98330635,0.0002597,70.001,265.2595,269.8906,90.1956,-9.6837e-05,-1.248e-05,0.0,0 STARLINK-5823,1 55786U 23028AX  23283.92151562 -.00001248  00000-0 -96837-4 0  9999,2 55786  70.0010 265.2595 0002597 269.8906  90.1956 14.98330635 35097,6950.191,96.107,573.861,570.251,0.0
55786.0,STARLINK-5823,PAYLOAD,2023-10-11 02:55:23,14.98322213,0.0003003,70.0001,264.7546,267.5512,92.5304,1.1108e-05,4e-07,0.0,0 STARLINK-5823,1 55786U 23028AX  23284.12179679  .00000040  00000-0  11108-4 0  9996,2 55786  70.0001 264.7546 0003003 267.5512  92.5304 14.98322213 35117,6950.217,96.107,574.169,569.995,0.0
55786.0,STARLINK-5823,PAYLOAD,2023-10-11 07:43:47,14.983288,0.000278,69.9996,264.2499,266.7921,93.292,-7.3319e-05,-9.68e-06,0.0,0 STARLINK-5823,1 55786U 23028AX  23284.32207575 -.00000968  00000-0 -73319-4 0  9998,2 55786  69.9996 264.2499 0002780 266.7921  93.2920 14.98328800 35159,6950.197,96.107,573.994,570.129,0.0
55786.0,STARLINK-5823,PAYLOAD,2023-10-12 04:33:31,14.98346602,0.0002703,70.0004,262.0617,268.339,91.7459,8.7632e-05,9.53e-06,0.0,0 STARLINK-5823,1 55786U 23028AX  23285.18994217  .00000953  00000-0  87632-4 0  9994,2 55786  70.0004 262.0617 0002703 268.3390  91.7459 14.98346602 35276,6950.142,96.106,573.885,570.128,0.0
55786.0,STARLINK-5823,PAYLOAD,2023-10-12 09:21:55,14.98337026,0.000284,69.9999,261.5563,270.7265,89.3569,-3.6699e-05,-5.31e-06,0.0,0 STARLINK-5823,1 55786U 23028AX  23285.39023026 -.00000531  00000-0 -36699-4 0  9999,2 55786  69.9999 261.5563 0002840 270.7265  89.3569 14.98337026 35310,6950.171,96.107,574.01,570.062,0.0
55786.0,STARLINK-5823,PAYLOAD,2023-10-13 04:35:33,14.9832733,0.0002746,69.9996,259.5364,265.9386,94.1459,5.1682e-05,5.24e-06,0.0,0 STARLINK-5823,1 55786U 23028AX  23286.19135444  .00000524  00000-0  51682-4 0  9995,2 55786  69.9996 259.5364 0002746 265.9386  94.1459 14.98327330 35429,6950.201,96.107,573.975,570.158,0.0
55786.0,STARLINK-5823,PAYLOAD,2023-10-13 07:47:49,14.98329471,0.0002615,69.9999,259.1993,263.029,97.0572,7.175e-05,7.63e-06,0.0,0 STARLINK-5823,1 55786U 23028AX  23286.32487270  .00000763  00000-0  71750-4 0  9990,2 55786  69.9999 259.1993 0002615 263.0290  97.0572 14.98329471 35453,6950.195,96.107,573.877,570.242,0.0
55786.0,STARLINK-5823,PAYLOAD,2023-10-13 15:48:29,14.98328472,0.0002701,70.0002,258.3578,269.9511,90.1339,3.6142e-05,3.38e-06,0.0,0 STARLINK-5823,1 55786U 23028AX  23286.65867457  .00000338  00000-0  36142-4 0  9999,2 55786  70.0002 258.3578 0002701 269.9511  90.1339 14.98328472 35509,6950.198,96.107,573.94,570.185,0.0
55786.0,STARLINK-5823,PAYLOAD,2023-10-14 04:37:33,14.98337578,0.0002809,69.9999,257.0109,263.5795,96.5044,8.9531e-05,9.76e-06,0.0,0 STARLINK-5823,1 55786U 23028AX  23287.19274529  .00000976  00000-0  89531-4 0  9999,2 55786  69.9999 257.0109 0002809 263.5795  96.5044 14.98337578 35577,6950.169,96.107,573.987,570.082,0.0
55786.0,STARLINK-5823,PAYLOAD,2023-10-14 07:49:49,14.98339313,0.0002858,70.0,256.6741,265.5565,94.5267,6.7804e-05,7.16e-06,0.0,0 STARLINK-5823,1 55786U 23028AX  23287.32626419  .00000716  00000-0  67804-4 0  9994,2 55786  70.0000 256.6741 0002858 265.5565  94.5267 14.98339313 35609,6950.164,96.106,574.015,570.043,0.0
55786.0,STARLINK-5823,PAYLOAD,2023-10-14 15:50:30,14.9832055,0.000231,70.0017,255.8314,269.4754,90.6141,7.1867e-05,7.64e-06,0.0,0 STARLINK-5823,1 55786U 23028AX  23287.66007686  .00000764  00000-0  71867-4 0  9997,2 55786  70.0017 255.8314 0002310 269.4754  90.6141 14.98320550 35645,6950.222,96.108,573.693,570.482,0.0
55786.0,STARLINK-5823,PAYLOAD,2023-10-14 22:15:02,14.98320651,0.0002359,70.0016,255.1583,261.492,98.5972,3.5338e-05,3.29e-06,0.0,0 STARLINK-5823,1 55786U 23028AX  23287.92711614  .00000329  00000-0  35338-4 0  9999,2 55786  70.0016 255.1583 0002359 261.4920  98.5972 14.98320651 35691,6950.222,96.108,573.726,570.447,0.0
55786.0,STARLINK-5823,PAYLOAD,2023-10-15 07:51:51,14.9832013,0.0002842,70.0,254.1505,270.0329,90.0504,-0.00012052,-1.53e-05,0.0,0 STARLINK-5823,1 55786U 23028AX  23288.32768341 -.00001530  00000-0 -12052-3 0  9997,2 55786  70.0000 254.1505 0002842 270.0329  90.0504 14.98320130 35750,6950.223,96.108,574.064,570.113,0.0
55786.0,STARLINK-5823,PAYLOAD,2023-10-15 22:17:03,14.98331089,0.0003094,69.9994,252.6361,269.5921,90.4883,6.472e-06,-1.6e-07,0.0,0 STARLINK-5823,1 55786U 23028AX  23288.92851339 -.00000016  00000-0  64720-5 0  9991,2 55786  69.9994 252.6361 0003094 269.5921  90.4883 14.98331089 35842,6950.19,96.107,574.205,569.904,0.0
55786.0,STARLINK-5823,PAYLOAD,2023-10-16 07:53:51,14.98342073,0.0002934,69.9997,251.6257,269.1716,90.9107,3.5736e-05,3.34e-06,0.0,0 STARLINK-5823,1 55786U 23028AX  23289.32906464  .00000334  00000-0  35736-4 0  9992,2 55786  69.9997 251.6257 0002934 269.1716  90.9107 14.98342073 35892,6950.156,96.106,574.06,569.981,0.0
55786.0,STARLINK-5823,PAYLOAD,2023-10-17 07:55:52,14.98326678,0.0002938,70.0,249.1005,271.5638,88.5185,0.00011891,1.326e-05,0.0,0 STARLINK-5823,1 55786U 23028AX  23290.33047130  .00001326  00000-0  11891-3 0  9998,2 55786  70.0000 249.1005 0002938 271.5638  88.5185 14.98326678 36047,6950.203,96.107,574.11,570.026,0.0
55786.0,STARLINK-5823,PAYLOAD,2023-10-18 03:09:29,14.98332342,0.000271,70.0006,247.082,265.8297,94.2552,-7.7609e-05,-1.019e-05,0.0,0 STARLINK-5823,1 55786U 23028AX  23291.13159329 -.00001019  00000-0 -77609-4 0  9992,2 55786  70.0006 247.0820 0002710 265.8297  94.2552 14.98332342 36171,6950.186,96.107,573.934,570.167,0.0
